[{"OBJECT_NAME":"SKYCRAFT-4C","OBJECT_ID":"2025-154H","EPOCH":"2026-03-09T22:57:39.203136","MEAN_MOTION":14.9463583,"ECCENTRICITY":0.00045758,"INCLINATION":97.6789,"RA_OF_ASC_NODE":135.2253,"ARG_OF_PERICENTER":219.2171,"MEAN_ANOMALY":140.8719,"EPHEMERIS_TYPE":0,"CLASSIFICATION_TYPE":"U","NORAD_CAT_ID":64896,"ELEMENT_SET_NO":999,"REV_AT_EPOCH":18432,"BSTAR":0.000346588,"MEAN_MOTION_DOT":3.699e-5,"MEAN_MOTION_DDOT":0},{"OBJECT_NAME":"NOAA 17 DEB","OBJECT_ID":"2002-032CQ","EPOCH":"2026-03-08T13:16:06.343680","MEAN_MOTION":14.94423569,"ECCENTRICITY":0.00133771,"INCLINATION":98.6934,"RA_OF_ASC_NODE":102.7142,"ARG_OF_PERICENTER":224.1091,"MEAN_ANOMALY":135.9061,"EPHEMERIS_TYPE":0,"CLASSIFICATION_TYPE":"U","NORAD_CAT_ID":48755,"ELEMENT_SET_NO":999,"REV_AT_EPOCH":26185,"BSTAR":0.0050463698,"MEAN_MOTION_DOT":0.00054808,"MEAN_MOTION_DDOT":0}]
